{
  "type": "FeatureCollection",
  "features": [
    {
      "type": "Feature",
      "properties": {
        "norad_id": 54259,
        "name": "EUTELSAT 10B",
        "group": "eutelsat",
        "lat": -0.045859054075648484,
        "lon": 15.178933236951103,
        "alt_km": 35788.45268139453,
        "timestamp": "2025-12-13T18:50:04.100018+00:00",
        "meta_object_name": "EUTELSAT 10B",
        "meta_object_id": "2022-157A",
        "meta_epoch": "2025-12-12T23:47:57.727104",
        "meta_mean_motion": 1.00270562,
        "meta_eccentricity": 6.838e-05,
        "meta_inclination": 0.062,
        "meta_ra_of_asc_node": 99.0663,
        "meta_arg_of_pericenter": 52.9272,
        "meta_mean_anomaly": 296.8936,
        "meta_ephemeris_type": 0,
        "meta_classification_type": "U",
        "meta_norad_cat_id": 54259,
        "meta_element_set_no": 999,
        "meta_rev_at_epoch": 1116,
        "meta_bstar": 0,
        "meta_mean_motion_dot": 8.1e-07,
        "meta_mean_motion_ddot": 0,
        "tle_line1": "1 54259U 22157A   25346.99164036  .00000081  00000+0  00000+0 0  9997",
        "tle_line2": "2 54259   0.0620  99.0663 0000683  52.9272 296.8936  1.00270562 11167"
      },
      "geometry": {
        "type": "Point",
        "coordinates": [
          15.178933236951103,
          -0.045859054075648484
        ]
      }
    },
    {
      "type": "Feature",
      "properties": {
        "norad_id": 59346,
        "name": "EUTELSAT 36D",
        "group": "eutelsat",
        "lat": 0.0322441439108118,
        "lon": 41.05693554164771,
        "alt_km": 35784.57391068908,
        "timestamp": "2025-12-13T18:50:04.100030+00:00",
        "meta_object_name": "EUTELSAT 36D",
        "meta_object_id": "2024-059A",
        "meta_epoch": "2025-12-12T22:12:41.090112",
        "meta_mean_motion": 1.00269446,
        "meta_eccentricity": 6.864e-05,
        "meta_inclination": 0.0196,
        "meta_ra_of_asc_node": 350.3258,
        "meta_arg_of_pericenter": 5.8335,
        "meta_mean_anomaly": 94.714,
        "meta_ephemeris_type": 0,
        "meta_classification_type": "U",
        "meta_norad_cat_id": 59346,
        "meta_element_set_no": 999,
        "meta_rev_at_epoch": 628,
        "meta_bstar": 0,
        "meta_mean_motion_dot": 0,
        "meta_mean_motion_ddot": 0,
        "tle_line1": "1 59346U 24059A   25346.92547558  .00000000  00000+0  00000+0 0  9990",
        "tle_line2": "2 59346   0.0196 350.3258 0000686   5.8335  94.7140  1.00269446  6288"
      },
      "geometry": {
        "type": "Point",
        "coordinates": [
          41.05693554164771,
          0.0322441439108118
        ]
      }
    }
  ]
}